{"fetched_at":"2026-07-19T17:31:09.790Z","source":"https://celestrak.org/NORAD/elements/gp.php?GROUP=oneweb&FORMAT=JSON","constellation":"oneweb","records":[{"OBJECT_NAME":"ONEWEB-0674","OBJECT_ID":"2023-029AP","EPOCH":"2026-07-19T05:25:40.680192","CLASSIFICATION_TYPE":"U","MEAN_MOTION":13.14501657,"ECCENTRICITY":0.00016703,"INCLINATION":87.8959,"RA_OF_ASC_NODE":283.3317,"ARG_OF_PERICENTER":106.9011,"MEAN_ANOMALY":253.2302,"EPHEMERIS_TYPE":0,"NORAD_CAT_ID":55833,"ELEMENT_SET_NO":999,"REV_AT_EPOCH":16362,"BSTAR":0.00063364392,"MEAN_MOTION_DOT":0.00000248,"MEAN_MOTION_DDOT":0},{"OBJECT_NAME":"ONEWEB-0675","OBJECT_ID":"2023-029AQ","EPOCH":"2026-07-19T06:39:57.655296","CLASSIFICATION_TYPE":"U","MEAN_MOTION":13.19725179,"ECCENTRICITY":0.00022396,"INCLINATION":87.9187,"RA_OF_ASC_NODE":298.5874,"ARG_OF_PERICENTER":95.9137,"MEAN_ANOMALY":264.2251,"EPHEMERIS_TYPE":0,"NORAD_CAT_ID":55834,"ELEMENT_SET_NO":999,"REV_AT_EPOCH":16315,"BSTAR":0.00018660077,"MEAN_MOTION_DOT":8.8e-7,"MEAN_MOTION_DDOT":0},{"OBJECT_NAME":"ONEWEB-0720","OBJECT_ID":"2023-029AR","EPOCH":"2026-07-19T06:28:34.544928","CLASSIFICATION_TYPE":"U","MEAN_MOTION":13.19726746,"ECCENTRICITY":0.00021846,"INCLINATION":87.9184,"RA_OF_ASC_NODE":298.5885,"ARG_OF_PERICENTER":107.5404,"MEAN_ANOMALY":252.5968,"EPHEMERIS_TYPE":0,"NORAD_CAT_ID":55835,"ELEMENT_SET_NO":999,"REV_AT_EPOCH":16307,"BSTAR":0.000023594989,"MEAN_MOTION_DOT":2.2e-7,"MEAN_MOTION_DDOT":0},{"OBJECT_NAME":"ONEWEB-0537","OBJECT_ID":"2023-043A","EPOCH":"2026-07-19T02:43:11.476128","CLASSIFICATION_TYPE":"U","MEAN_MOTION":13.16594106,"ECCENTRICITY":0.00021717,"INCLINATION":87.9076,"RA_OF_ASC_NODE":222.4296,"ARG_OF_PERICENTER":88.3215,"MEAN_ANOMALY":271.8164,"EPHEMERIS_TYPE":0,"NORAD_CAT_ID":56046,"ELEMENT_SET_NO":999,"REV_AT_EPOCH":16316,"BSTAR":0.000050755108,"MEAN_MOTION_DOT":3.2e-7,"MEAN_MOTION_DDOT":0},{"OBJECT_NAME":"ONEWEB-0538","OBJECT_ID":"2023-043B","EPOCH":"2026-07-19T02:34:04.008576","CLASSIFICATION_TYPE":"U","MEAN_MOTION":13.16594266,"ECCENTRICITY":0.0002331,"INCLINATION":87.9079,"RA_OF_ASC_NODE":222.4337,"ARG_OF_PERICENTER":92.8953,"MEAN_ANOMALY":267.2444,"EPHEMERIS_TYPE":0,"NORAD_CAT_ID":56047,"ELEMENT_SET_NO":999,"REV_AT_EPOCH":16317,"BSTAR":-0.000075038231,"MEAN_MOTION_DOT":-1.6e-7,"MEAN_MOTION_DDOT":0},{"OBJECT_NAME":"ONEWEB-0546","OBJECT_ID":"2023-043C","EPOCH":"2026-07-19T02:15:49.661856","CLASSIFICATION_TYPE":"U","MEAN_MOTION":13.1659426,"ECCENTRICITY":0.00021972,"INCLINATION":87.9079,"RA_OF_ASC_NODE":222.4364,"ARG_OF_PERICENTER":74.2683,"MEAN_ANOMALY":285.8691,"EPHEMERIS_TYPE":0,"NORAD_CAT_ID":56048,"ELEMENT_SET_NO":999,"REV_AT_EPOCH":16316,"BSTAR":-0.000063992113,"MEAN_MOTION_DOT":-1.2e-7,"MEAN_MOTION_DDOT":0},{"OBJECT_NAME":"ONEWEB-0547","OBJECT_ID":"2023-043D","EPOCH":"2026-07-19T02:47:28.568832","CLASSIFICATION_TYPE":"U","MEAN_MOTION":13.21825778,"ECCENTRICITY":0.00022685,"INCLINATION":87.9236,"RA_OF_ASC_NODE":237.6203,"ARG_OF_PERICENTER":98.5229,"MEAN_ANOMALY":261.6162,"EPHEMERIS_TYPE":0,"NORAD_CAT_ID":56049,"ELEMENT_SET_NO":999,"REV_AT_EPOCH":16244,"BSTAR":-0.0003882978,"MEAN_MOTION_DOT":-0.00000147,"MEAN_MOTION_DDOT":0},{"OBJECT_NAME":"ONEWEB-0548","OBJECT_ID":"2023-043E","EPOCH":"2026-07-19T02:51:08.932032","CLASSIFICATION_TYPE":"U","MEAN_MOTION":13.16595025,"ECCENTRICITY":0.00016224,"INCLINATION":87.9075,"RA_OF_ASC_NODE":222.4267,"ARG_OF_PERICENTER":95.5681,"MEAN_ANOMALY":264.5635,"EPHEMERIS_TYPE":0,"NORAD_CAT_ID":56050,"ELEMENT_SET_NO":999,"REV_AT_EPOCH":16316,"BSTAR":0.00016412846,"MEAN_MOTION_DOT":7.6e-7,"MEAN_MOTION_DDOT":0},{"OBJECT_NAME":"ONEWEB-0549","OBJECT_ID":"2023-043F","EPOCH":"2026-07-19T04:28:00.315264","CLASSIFICATION_TYPE":"U","MEAN_MOTION":13.21826291,"ECCENTRICITY":0.00024637,"INCLINATION":87.9226,"RA_OF_ASC_NODE":237.6106,"ARG_OF_PERICENTER":95.3132,"MEAN_ANOMALY":264.8283,"EPHEMERIS_TYPE":0,"NORAD_CAT_ID":56051,"ELEMENT_SET_NO":999,"REV_AT_EPOCH":16245,"BSTAR":-0.0004458747,"MEAN_MOTION_DOT":-0.00000171,"MEAN_MOTION_DDOT":0},{"OBJECT_NAME":"ONEWEB-0550","OBJECT_ID":"2023-043G","EPOCH":"2026-07-19T02:19:38.241696","CLASSIFICATION_TYPE":"U","MEAN_MOTION":13.21827496,"ECCENTRICITY":0.00019687,"INCLINATION":87.9229,"RA_OF_ASC_NODE":237.6269,"ARG_OF_PERICENTER":101.2391,"MEAN_ANOMALY":258.8965,"EPHEMERIS_TYPE":0,"NORAD_CAT_ID":56052,"ELEMENT_SET_NO":999,"REV_AT_EPOCH":16244,"BSTAR":-0.000091623889,"MEAN_MOTION_DOT":-2.5e-7,"MEAN_MOTION_DDOT":0},{"OBJECT_NAME":"ONEWEB-0551","OBJECT_ID":"2023-043H","EPOCH":"2026-07-19T04:12:32.536512","CLASSIFICATION_TYPE":"U","MEAN_MOTION":13.15547626,"ECCENTRICITY":0.00024556,"INCLINATION":87.8975,"RA_OF_ASC_NODE":252.8519,"ARG_OF_PERICENTER":99.5914,"MEAN_ANOMALY":260.5494,"EPHEMERIS_TYPE":0,"NORAD_CAT_ID":56053,"ELEMENT_SET_NO":999,"REV_AT_EPOCH":16060,"BSTAR":-0.00034683908,"MEAN_MOTION_DOT":-0.00000118,"MEAN_MOTION_DDOT":0},{"OBJECT_NAME":"ONEWEB-0552","OBJECT_ID":"2023-043J","EPOCH":"2026-07-19T04:01:21.545472","CLASSIFICATION_TYPE":"U","MEAN_MOTION":13.2182548,"ECCENTRICITY":0.00021207,"INCLINATION":87.923,"RA_OF_ASC_NODE":237.6175,"ARG_OF_PERICENTER":101.9451,"MEAN_ANOMALY":258.1921,"EPHEMERIS_TYPE":0,"NORAD_CAT_ID":56054,"ELEMENT_SET_NO":999,"REV_AT_EPOCH":16245,"BSTAR":0.00015672876,"MEAN_MOTION_DOT":7.8e-7,"MEAN_MOTION_DDOT":0},{"OBJECT_NAME":"ONEWEB-0553","OBJECT_ID":"2023-043K","EPOCH":"2026-07-19T07:53:15.211392","CLASSIFICATION_TYPE":"U","MEAN_MOTION":13.16594045,"ECCENTRICITY":0.00019641,"INCLINATION":87.9079,"RA_OF_ASC_NODE":222.3898,"ARG_OF_PERICENTER":82.436,"MEAN_ANOMALY":277.6994,"EPHEMERIS_TYPE":0,"NORAD_CAT_ID":56055,"ELEMENT_SET_NO":999,"REV_AT_EPOCH":16320,"BSTAR":-0.00013857237,"MEAN_MOTION_DOT":-4e-7,"MEAN_MOTION_DDOT":0},{"OBJECT_NAME":"ONEWEB-0554","OBJECT_ID":"2023-043L","EPOCH":"2026-07-19T05:45:34.875936","CLASSIFICATION_TYPE":"U","MEAN_MOTION":13.16594607,"ECCENTRICITY":0.00015386,"INCLINATION":87.9078,"RA_OF_ASC_NODE":222.4158,"ARG_OF_PERICENTER":95.3303,"MEAN_ANOMALY":264.8003,"EPHEMERIS_TYPE":0,"NORAD_CAT_ID":56056,"ELEMENT_SET_NO":999,"REV_AT_EPOCH":16317,"BSTAR":-0.00011727686,"MEAN_MOTION_DOT":-3.2e-7,"MEAN_MOTION_DDOT":0},{"OBJECT_NAME":"ONEWEB-0555","OBJECT_ID":"2023-043M","EPOCH":"2026-07-19T03:01:25.214592","CLASSIFICATION_TYPE":"U","MEAN_MOTION":13.16593408,"ECCENTRICITY":0.00020724,"INCLINATION":87.9077,"RA_OF_ASC_NODE":222.4274,"ARG_OF_PERICENTER":77.3368,"MEAN_ANOMALY":282.7994,"EPHEMERIS_TYPE":0,"NORAD_CAT_ID":56057,"ELEMENT_SET_NO":999,"REV_AT_EPOCH":16316,"BSTAR":0.00036722839,"MEAN_MOTION_DOT":0.00000153,"MEAN_MOTION_DDOT":0},{"OBJECT_NAME":"ONEWEB-0557","OBJECT_ID":"2023-043N","EPOCH":"2026-07-19T07:00:48.628800","CLASSIFICATION_TYPE":"U","MEAN_MOTION":13.16594407,"ECCENTRICITY":0.0001105,"INCLINATION":87.9082,"RA_OF_ASC_NODE":222.4043,"ARG_OF_PERICENTER":63.1225,"MEAN_ANOMALY":297.0019,"EPHEMERIS_TYPE":0,"NORAD_CAT_ID":56058,"ELEMENT_SET_NO":999,"REV_AT_EPOCH":16318,"BSTAR":0.00015558104,"MEAN_MOTION_DOT":7.2e-7,"MEAN_MOTION_DDOT":0}]}
