[
  {
    "name": "ONEWEB-0674",
    "noradId": "55833",
    "line1": "1 55833U 23029AP  26200.22616528  .00000248  00000+0  63364-3 0  9990",
    "line2": "2 55833  87.8959 283.3317 0001670 106.9011 253.2302 13.14501657163629"
  },
  {
    "name": "ONEWEB-0675",
    "noradId": "55834",
    "line1": "1 55834U 23029AQ  26200.27775064  .00000088  00000+0  18660-3 0  9998",
    "line2": "2 55834  87.9187 298.5874 0002239  95.9137 264.2251 13.19725179163153"
  },
  {
    "name": "ONEWEB-0720",
    "noradId": "55835",
    "line1": "1 55835U 23029AR  26200.26984427  .00000022  00000+0  23595-4 0  9995",
    "line2": "2 55835  87.9184 298.5885 0002184 107.5404 252.5968 13.19726746163076"
  },
  {
    "name": "ONEWEB-0537",
    "noradId": "56046",
    "line1": "1 56046U 23043A   26200.11332727  .00000032  00000+0  50755-4 0  9999",
    "line2": "2 56046  87.9076 222.4296 0002171  88.3215 271.8164 13.16594106163167"
  },
  {
    "name": "ONEWEB-0538",
    "noradId": "56047",
    "line1": "1 56047U 23043B   26200.10699084 -.00000016  00000+0 -75038-4 0  9996",
    "line2": "2 56047  87.9079 222.4337 0002331  92.8953 267.2444 13.16594266163172"
  },
  {
    "name": "ONEWEB-0546",
    "noradId": "56048",
    "line1": "1 56048U 23043C   26200.09432479 -.00000012  00000+0 -63992-4 0  9990",
    "line2": "2 56048  87.9079 222.4364 0002197  74.2683 285.8691 13.16594260163160"
  },
  {
    "name": "ONEWEB-0547",
    "noradId": "56049",
    "line1": "1 56049U 23043D   26200.11630288 -.00000147  00000+0 -38830-3 0  9993",
    "line2": "2 56049  87.9236 237.6203 0002268  98.5229 261.6162 13.21825778162442"
  },
  {
    "name": "ONEWEB-0548",
    "noradId": "56050",
    "line1": "1 56050U 23043E   26200.11885338  .00000076  00000+0  16413-3 0  9995",
    "line2": "2 56050  87.9075 222.4267 0001622  95.5681 264.5635 13.16595025163169"
  },
  {
    "name": "ONEWEB-0549",
    "noradId": "56051",
    "line1": "1 56051U 23043F   26200.18611476 -.00000171  00000+0 -44587-3 0  9994",
    "line2": "2 56051  87.9226 237.6106 0002463  95.3132 264.8283 13.21826291162452"
  },
  {
    "name": "ONEWEB-0550",
    "noradId": "56052",
    "line1": "1 56052U 23043G   26200.09697039 -.00000025  00000+0 -91624-4 0  9997",
    "line2": "2 56052  87.9229 237.6269 0001968 101.2391 258.8965 13.21827496162446"
  },
  {
    "name": "ONEWEB-0551",
    "noradId": "56053",
    "line1": "1 56053U 23043H   26200.17537658 -.00000118  00000+0 -34684-3 0  9992",
    "line2": "2 56053  87.8975 252.8519 0002455  99.5914 260.5494 13.15547626160603"
  },
  {
    "name": "ONEWEB-0552",
    "noradId": "56054",
    "line1": "1 56054U 23043J   26200.16761048  .00000078  00000+0  15673-3 0  9994",
    "line2": "2 56054  87.9230 237.6175 0002120 101.9451 258.1921 13.21825480162458"
  },
  {
    "name": "ONEWEB-0553",
    "noradId": "56055",
    "line1": "1 56055U 23043K   26200.32864828 -.00000040  00000+0 -13857-3 0  9996",
    "line2": "2 56055  87.9079 222.3898 0001964  82.4360 277.6994 13.16594045163204"
  },
  {
    "name": "ONEWEB-0554",
    "noradId": "56056",
    "line1": "1 56056U 23043L   26200.23998699 -.00000032  00000+0 -11728-3 0  9997",
    "line2": "2 56056  87.9078 222.4158 0001538  95.3303 264.8003 13.16594607163170"
  },
  {
    "name": "ONEWEB-0555",
    "noradId": "56057",
    "line1": "1 56057U 23043M   26200.12598628  .00000153  00000+0  36723-3 0  9998",
    "line2": "2 56057  87.9077 222.4274 0002072  77.3368 282.7994 13.16593408163169"
  },
  {
    "name": "ONEWEB-0557",
    "noradId": "56058",
    "line1": "1 56058U 23043N   26200.29222950  .00000072  00000+0  15558-3 0  9992",
    "line2": "2 56058  87.9082 222.4043 0001105  63.1225 297.0019 13.16594407163180"
  }
]